#aV2007 12 15  0  0   .00000000      96 DD+AD WGS84 FIT  NGA
## 1457 518400.00000000   900.00000000 54449  .0000000000000
+   31     1  2  3  4  5  6  7  8  9 10 11 12 13 14 15 16 17
+         18 19 20 21 22 23 24 25 26 27 28 30 31 32  0  0  0
+          0  0  0  0  0  0  0  0  0  0  0  0  0  0  0  0  0
+          0  0  0  0  0  0  0  0  0  0  0  0  0  0  0  0  0
+          0  0  0  0  0  0  0  0  0  0  0  0  0  0  0  0  0
++         0  0  0  0  0  0  0  0  0  0  0  0  0  0  0  0  0
++         0  0  0  0  0  0  0  0  0  0  0  0  0  0  0  0  0
++         0  0  0  0  0  0  0  0  0  0  0  0  0  0  0  0  0
++         0  0  0  0  0  0  0  0  0  0  0  0  0  0  0  0  0
++         0  0  0  0  0  0  0  0  0  0  0  0  0  0  0  0  0
%c cc cc ccc ccc cccc cccc cccc cccc ccccc ccccc ccccc ccccc
%c cc cc ccc ccc cccc cccc cccc cccc ccccc ccccc ccccc ccccc
%f  0.0000000  0.000000000  0.00000000000  0.000000000000000
%f  0.0000000  0.000000000  0.00000000000  0.000000000000000
%i    0    0    0    0      0      0      0      0         0
%i    0    0    0    0      0      0      0      0         0
/*      NGA, ST. LOUIS,MO.                                  
/*   EPHEMERIS COMPUTED FROM  3 DAYS OF DATA                
/* CCCCCCCCCCCCCCCCCCCCCCCCCCCCCCCCCCCCCCCCCCCCCCCCCCCCCCCCC
/* CCCCCCCCCCCCCCCCCCCCCCCCCCCCCCCCCCCCCCCCCCCCCCCCCCCCCCCCC
*  2007 12 15 14 45   .00000000                                                 
P  1  18349.660185  15200.569158 -11591.577009    172.764138                    
V  1   6543.322138  13582.566213  27571.300994       .023127                    
P  2 -16557.879686   -150.695111 -20894.935204    158.585637                    
V  2  10072.241829 -24237.954221  -8192.906288       .028768                    
P  3  20271.749190   4487.788604  16506.601610    158.621486                    
V  3  12215.065651  17724.089833 -19186.537226       .053199                    
P  4 -10885.724778 -12268.874625 -20913.276009    -37.342922                    
V  4  12394.298670 -23432.185954   7690.176047      -.051362                    
P  5 -12185.621580  15471.164078 -18019.529478    597.933255                    
V  5 -22462.203483   2027.963744  17321.271353       .201763                    
P  6   2855.273469  21808.178684 -14692.191094    188.803987                    
V  6 -13687.428802 -13536.712758 -22504.096604      -.123095                    
P  7   6551.516462  22529.571036 -12090.214311    -26.597067                    
V  7 -12372.902089 -10520.234288 -25634.984074      -.045697                    
P  8  -3610.658322 -18880.290958  18018.383469   -133.532298                    
V  8  12239.518275 -19770.304040 -18620.070468      -.013457                    
P  9 -14337.879893  20746.552843   7421.047524    101.137605                    
V  9   1559.347117 -10517.799610  30131.368420       .017463                    
P 10 -26713.451686   1044.342708   -821.101048   -174.730763                    
V 10    742.772598  -2408.630372 -31636.748624      -.122261                    
P 11  11657.073552 -22638.548851   6823.016824     26.581530                    
V 11   2493.995690   9992.136850  28642.492905       .002189                    
P 12 -18116.851224  12071.841242 -15078.166760   -351.468394                    
V 12 -19433.502774   -411.670217  22951.162576      -.011296                    
P 13  -3629.121180 -22447.127935 -13852.152339    228.024331                    
V 13  10414.291756  13932.622055 -25469.415005       .025232                    
P 14  15349.677010  21693.577893  -1314.500537   -312.941460                    
V 14   -557.442934   2505.200449  32243.804140       .027271                    
P 15 -14361.327454   5991.036328  21550.564747    -71.461606                    
V 15 -15535.867815 -22466.225800  -4132.441588       .014779                    
P 16  25982.009458   2033.408342  -5505.424331    128.966348                    
V 16  -6858.613880   2961.012221 -30704.830442       .013193                    
P 17 -15217.243898 -21865.296832   -334.140902     46.558580                    
V 17   2017.775826  -1915.788932  31618.803866      -.009390                    
P 18    856.603578  15496.780780  21722.286580   -219.126167                    
V 18 -27198.281342   1128.955071    -75.255489       .025253                    
P 19  14628.346733  -5249.969651  21633.428903     12.167678                    
V 19  13837.878976  23501.337221  -3513.062350       .018574                    
P 20  15308.175640 -13700.248707 -16915.158874    124.450929                    
V 20  21418.516640   -173.315648  19689.656269      -.007053                    
P 21  -3255.125059  23859.408630  10669.224283     75.212523                    
V 21  -9228.106286  10555.221452 -27390.442300      -.005547                    
P 22  15499.851660  12260.167562  17924.462619    205.156270                    
V 22 -22376.422430   2644.258818  17661.857651       .005136                    
P 23   7044.336054 -14870.744521 -20861.084946    318.135465                    
V 23  15748.809120  21166.241800 -10025.964559       .032099                    
P 24 -12699.909954  23507.012141   -203.820996     54.118578                    
V 24  -2226.154878  -1722.547078 -31420.443912       .032008                    
P 25   5860.907021 -25661.667244   4493.840320    491.226311                    
V 25   4148.197904  -4065.260433 -31017.534213       .038196                    
P 26 -15568.961254   1206.995441  21126.839436    126.541137                    
V 26 -14632.641526 -23533.420165  -8710.315778       .114349                    
P 27   1395.937725 -24277.610637  11105.237677    154.360432                    
V 27   6945.090451 -11414.511985 -27670.788476       .024990                    
P 28 -12834.705753 -13001.895652  19754.405544    -12.069713                    
V 28  24101.384215  -2409.852237  13988.467561      -.006727                    
P 30  -5745.185111  15822.712543 -20857.148650     56.200027                    
V 30 -25716.583516   2277.775676   9052.924511       .014812                    
P 31  11845.120584   9749.068069 -21467.150819     -1.466789                    
V 31 -12082.668402  24977.945654   4710.176709      -.014703                    
P 32  22575.564723   7990.407539  11772.650711    172.276493                    
V 32 -14273.469817   2120.144714  27153.505464       .120038                    
EOF
